*******************************************************************************
JPL/HORIZONS                 2 Pallas (A802 FA)            2022-May-09 17:07:12
Rec #:       2 (+COV) Soln.date: 2022-Apr-14_14:47:29   # obs: 9025 (1804-2022)
 
IAU76/J2000 helio. ecliptic osc. elements (au, days, deg., period=Julian yrs):
 
  EPOCH=  2449976.5 ! 1995-Sep-16.00 (TDB)         Residual RMS= .37134
   EC= .2338123415749628   QR= 2.123204751285651   TP= 2449888.234262689
   OM= 173.2983467771782   W=  309.6979606055149   IN= 34.80769754202284
   A= 2.771128884599989    MA= 18.85867340545694   ADIST= 3.419053017914328
   PER= 4.6131             N= .213657909           ANGMOM= .027842097
   DAN= 2.27924            DDN= 3.07955            L= 128.6135357
   B= -26.0531402          MOID= 1.22421002        TP= 1995-Jun-19.7342626890
 
Asteroid physical parameters (km, seconds, rotational period in hours):
   GM= 13.63               RAD= 256.5              ROTPER= 7.813221
   H= 4.11                 G= .110                 B-V= .635
                           ALBEDO= .155            STYP= B
 
ASTEROID comments: 
1: soln ref.= JPL#52, OCC=0
2: source=ORB
*******************************************************************************


*******************************************************************************
Ephemeris / WWW_USER Mon May  9 17:07:12 2022 Pasadena, USA      / Horizons
*******************************************************************************
Target body name: 2 Pallas (A802 FA)              {source: JPL#52}
Center body name: Solar System Barycenter (0)     {source: DE441}
Center-site name: BODY CENTER
*******************************************************************************
Start time      : A.D. 2020-Jan-01 00:00:00.0000 TDB
Stop  time      : A.D. 2040-Jan-01 00:00:00.0000 TDB
Step-size       : 14400 minutes
*******************************************************************************
Center geodetic : 0.00000000,0.00000000,0.0000000 {E-lon(deg),Lat(deg),Alt(km)}
Center cylindric: 0.00000000,0.00000000,0.0000000 {E-lon(deg),Dxy(km),Dz(km)}
Center radii    : (undefined)                                                  
Small perturbers: Yes                             {source: SB441-N16}
Output units    : AU-D
Output type     : GEOMETRIC cartesian states
Output format   : 2 (position and velocity)
Reference frame : ICRF
*******************************************************************************
Initial IAU76/J2000 heliocentric ecliptic osculating elements (au, days, deg.):
  EPOCH=  2449976.5 ! 1995-Sep-16.00 (TDB)         Residual RMS= .37134        
   EC= .2338123415749628   QR= 2.123204751285651   TP= 2449888.234262689       
   OM= 173.2983467771782   W=  309.6979606055149   IN= 34.80769754202284       
  Equivalent ICRF heliocentric cartesian coordinates (au, au/d):
   X=-1.970054913847300E+00  Y= 9.344601720792679E-01  Z=-5.069228381032120E-02
  VX=-6.556101132986031E-03 VY=-1.072367279805506E-02 VZ= 2.566511942726757E-03
Asteroid physical parameters (km, seconds, rotational period in hours):        
   GM= 13.63               RAD= 256.5              ROTPER= 7.813221            
   H= 4.11                 G= .110                 B-V= .635                   
                           ALBEDO= .155            STYP= B                     
*******************************************************************************
JDTDB
   X     Y     Z
   VX    VY    VZ
*******************************************************************************
$$SOE
2458849.500000000 = A.D. 2020-Jan-01 00:00:00.0000 TDB 
 X =-6.208691173509251E-01 Y =-2.992731445769519E+00 Z = 6.401106789868980E-01
 VX= 8.361420376462893E-03 VY=-3.528537773569180E-03 VZ= 1.069019530655166E-04
2458859.500000000 = A.D. 2020-Jan-11 00:00:00.0000 TDB 
 X =-5.369711968345261E-01 Y =-3.026569830809455E+00 Z = 6.408722416352233E-01
 VX= 8.416669762201151E-03 VY=-3.239395651600424E-03 VZ= 4.556594903191426E-05
2458869.500000000 = A.D. 2020-Jan-21 00:00:00.0000 TDB 
 X =-4.525651748117074E-01 Y =-3.057524720098560E+00 Z = 6.410251216115427E-01
 VX= 8.463082981128798E-03 VY=-2.951861480194453E-03 VZ=-1.483302369117001E-05
2458879.500000000 = A.D. 2020-Jan-31 00:00:00.0000 TDB 
 X =-3.677381615633570E-01 Y =-3.085612857533292E+00 Z = 6.405787329814022E-01
 VX= 8.500908543183524E-03 VY=-2.666066046541266E-03 VZ=-7.428650459813122E-05
2458889.500000000 = A.D. 2020-Feb-10 00:00:00.0000 TDB 
 X =-2.825748350803551E-01 Y =-3.110852234124050E+00 Z = 6.395425660917258E-01
 VX= 8.530384419263185E-03 VY=-2.382128180441068E-03 VZ=-1.327876609712794E-04
2458899.500000000 = A.D. 2020-Feb-20 00:00:00.0000 TDB 
 X =-1.971575457111506E-01 Y =-3.133261974102228E+00 Z = 6.379261723693183E-01
 VX= 8.551738195294136E-03 VY=-2.100155876042308E-03 VZ=-1.903310758776983E-04
2458909.500000000 = A.D. 2020-Mar-01 00:00:00.0000 TDB 
 X =-1.115664191126184E-01 Y =-3.152862231814474E+00 Z = 6.357391511371818E-01
 VX= 8.565187256889527E-03 VY=-1.820247328072968E-03 VZ=-2.469125569062789E-04
2458919.500000000 = A.D. 2020-Mar-11 00:00:00.0000 TDB 
 X =-2.587945721013354E-02 Y =-3.169674098579710E+00 Z = 6.329911382444483E-01
 VX= 8.570939002274772E-03 VY=-1.542491890142894E-03 VZ=-3.025289636469419E-04
2458929.500000000 = A.D. 2020-Mar-21 00:00:00.0000 TDB 
 X = 5.982736308304443E-02 Y =-3.183719518783999E+00 Z = 6.296917963549780E-01
 VX= 8.569191075745450E-03 VY=-1.266970964914836E-03 VZ=-3.571780479630513E-04
2458939.500000000 = A.D. 2020-Mar-31 00:00:00.0000 TDB 
 X = 1.454799935481422E-01 Y =-3.195021214547728E+00 Z = 6.258508067698513E-01
 VX= 8.560131613794862E-03 VY=-9.937588287014098E-04 VZ=-4.108583072446861E-04
2458949.500000000 = A.D. 2020-Apr-10 00:00:00.0000 TDB 
 X = 2.310062208545718E-01 Y =-3.203602618324350E+00 Z = 6.214778626485573E-01
 VX= 8.543939500892580E-03 VY=-7.229233939805013E-04 VZ=-4.635688513414433E-04
2458959.500000000 = A.D. 2020-Apr-20 00:00:00.0000 TDB 
 X = 3.163355753516002E-01 Y =-3.209487812835139E+00 Z = 6.165826634966983E-01
 VX= 8.520784633027112E-03 VY=-4.545269149814261E-04 VZ=-5.153092820224293E-04
2458969.500000000 = A.D. 2020-Apr-30 00:00:00.0000 TDB 
 X = 4.013992425271143E-01 Y =-3.212701477798499E+00 Z = 6.111749108063270E-01
 VX= 8.490828187217673E-03 VY=-1.886266419980940E-04 VZ=-5.660795824851709E-04
2458979.500000000 = A.D. 2020-May-10 00:00:00.0000 TDB 
 X = 4.861299771794825E-01 Y =-3.213268842970970E+00 Z = 6.052643047636000E-01
 VX= 8.454222893966393E-03 VY= 7.472456961642750E-05 VZ=-6.158800139479416E-04
2458989.500000000 = A.D. 2020-May-20 00:00:00.0000 TDB 
 X = 5.704620203094254E-01 Y =-3.211215647072745E+00 Z = 5.988605419617099E-01
 VX= 8.411113307947924E-03 VY= 3.354776910425022E-04 VZ=-6.647110181139487E-04
2458999.500000000 = A.D. 2020-May-30 00:00:00.0000 TDB 
 X = 6.543310186945595E-01 Y =-3.206568102197966E+00 Z = 5.919733140502524E-01
 VX= 8.361636073892058E-03 VY= 5.935869915539438E-04 VZ=-7.125731279132896E-04
2459009.500000000 = A.D. 2020-Jun-09 00:00:00.0000 TDB 
 X = 7.376739471074361E-01 Y =-3.199352863319018E+00 Z = 5.846123072348810E-01
 VX= 8.305920189604462E-03 VY= 8.490095469075509E-04 VZ=-7.594668860245969E-04
2459019.500000000 = A.D. 2020-Jun-19 00:00:00.0000 TDB 
 X = 8.204290331396800E-01 Y =-3.189597002553129E+00 Z = 5.767872025669432E-01
 VX= 8.244087263201033E-03 VY= 1.101704777941394E-03 VZ=-8.053927684326256E-04
2459029.500000000 = A.D. 2020-Jun-29 00:00:00.0000 TDB 
 X = 9.025356845527590E-01 Y =-3.177327987893098E+00 Z = 5.685076769610496E-01
 VX= 8.176251761181060E-03 VY= 1.351634019442444E-03 VZ=-8.503511158945425E-04
2459039.500000000 = A.D. 2020-Jul-09 00:00:00.0000 TDB 
 X = 9.839344190713004E-01 Y =-3.162573666094547E+00 Z = 5.597834048491623E-01
 VX= 8.102521249470040E-03 VY= 1.598760119831155E-03 VZ=-8.943420751409634E-04
2459049.500000000 = A.D. 2020-Jul-19 00:00:00.0000 TDB 
 X = 1.064566796567708E+00 Y =-3.145362249420480E+00 Z = 5.506240603810212E-01
 VX= 8.022996631236148E-03 VY= 1.843047069408074E-03 VZ=-9.373655477841158E-04
2459059.500000000 = A.D. 2020-Jul-29 00:00:00.0000 TDB 
 X = 1.144375353619964E+00 Y =-3.125722305980360E+00 Z = 5.410393201162412E-01
 VX= 7.937772383846176E-03 VY= 2.084459652159488E-03 VZ=-9.794211421751760E-04
2459069.500000000 = A.D. 2020-Aug-08 00:00:00.0000 TDB 
 X = 1.223303540431182E+00 Y =-3.103682753461748E+00 Z = 5.310388662037027E-01
 VX= 7.846936793696387E-03 VY= 2.322963114258259E-03 VZ=-1.020508123519169E-03
2459079.500000000 = A.D. 2020-Aug-18 00:00:00.0000 TDB 
 X = 1.301295660066708E+00 Y =-3.079272856117885E+00 Z = 5.206323900735238E-01
 VX= 7.750572183868843E-03 VY= 2.558522844007618E-03 VZ=-1.060625361719293E-03
2459089.500000000 = A.D. 2020-Aug-28 00:00:00.0000 TDB 
 X = 1.378296809914059E+00 Y =-3.052522224891693E+00 Z = 5.098295966416856E-01
 VX= 7.648755131193322E-03 VY= 2.791104065513316E-03 VZ=-1.099771281838370E-03
2459099.500000000 = A.D. 2020-Sep-07 00:00:00.0000 TDB 
 X = 1.454252825277387E+00 Y =-3.023460820524462E+00 Z = 4.986402089911575E-01
 VX= 7.541556676915286E-03 VY= 3.020671547353862E-03 VZ=-1.137943817721182E-03
2459109.500000000 = A.D. 2020-Sep-17 00:00:00.0000 TDB 
 X = 1.529110225053779E+00 Y =-2.992118959526951E+00 Z = 4.870739735147980E-01
 VX= 7.429042532025022E-03 VY= 3.247189320766541E-03 VZ=-1.175140365933457E-03
2459119.500000000 = A.D. 2020-Sep-27 00:00:00.0000 TDB 
 X = 1.602816159428412E+00 Y =-2.958527322927371E+00 Z = 4.751406655135644E-01
 VX= 7.311273275648135E-03 VY= 3.470620406134225E-03 VZ=-1.211357740985609E-03
2459129.500000000 = A.D. 2020-Oct-07 00:00:00.0000 TDB 
 X = 1.675318359520219E+00 Y =-2.922716967713599E+00 Z = 4.628500952327648E-01
 VX= 7.188304546859524E-03 VY= 3.690926547529657E-03 VZ=-1.246592132546116E-03
2459139.500000000 = A.D. 2020-Oct-17 00:00:00.0000 TDB 
 X = 1.746565088915202E+00 Y =-2.884719340892162E+00 Z = 4.502121143150127E-01
 VX= 7.060187230532225E-03 VY= 3.908067954797275E-03 VZ=-1.280839064931979E-03
